{
  "type": "FeatureCollection",
  "features": [
    {
      "type": "Feature",
      "properties": {
        "norad_id": 31307,
        "name": "GALAXY 17 (G-17)",
        "group": "intelsat",
        "lat": -1.2170712858215782,
        "lon": 52.68973162447894,
        "alt_km": 35810.15536786395,
        "timestamp": "2025-12-13T03:42:10.947672+00:00",
        "meta_object_name": "GALAXY 17 (G-17)",
        "meta_object_id": "2007-016B",
        "meta_epoch": "2025-12-12T06:13:37.834752",
        "meta_mean_motion": 1.00272492,
        "meta_eccentricity": 0.00058541,
        "meta_inclination": 2.4992,
        "meta_ra_of_asc_node": 82.2905,
        "meta_arg_of_pericenter": 164.1965,
        "meta_mean_anomaly": 203.146,
        "meta_ephemeris_type": 0,
        "meta_classification_type": "U",
        "meta_norad_cat_id": 31307,
        "meta_element_set_no": 999,
        "meta_rev_at_epoch": 6793,
        "meta_bstar": 0,
        "meta_mean_motion_dot": -1.97e-06,
        "meta_mean_motion_ddot": 0,
        "tle_line1": "1 31307U 07016B   25346.25946568 -.00000197  00000+0  00000+0 0  9999",
        "tle_line2": "2 31307   2.4992  82.2905 0005854 164.1965 203.1460  1.00272492 67930"
      },
      "geometry": {
        "type": "Point",
        "coordinates": [
          52.68973162447894,
          -1.2170712858215782
        ]
      }
    },
    {
      "type": "Feature",
      "properties": {
        "norad_id": 31862,
        "name": "DIRECTV 10",
        "group": "intelsat",
        "lat": -0.004861046829601444,
        "lon": 34.84579719419201,
        "alt_km": 35787.506207446604,
        "timestamp": "2025-12-13T03:42:10.947684+00:00",
        "meta_object_name": "DIRECTV 10",
        "meta_object_id": "2007-032A",
        "meta_epoch": "2025-12-11T14:44:08.030112",
        "meta_mean_motion": 1.00271436,
        "meta_eccentricity": 3.191e-05,
        "meta_inclination": 0.0124,
        "meta_ra_of_asc_node": 167.5307,
        "meta_arg_of_pericenter": 60.5816,
        "meta_mean_anomaly": 330.7109,
        "meta_ephemeris_type": 0,
        "meta_classification_type": "U",
        "meta_norad_cat_id": 31862,
        "meta_element_set_no": 999,
        "meta_rev_at_epoch": 4371,
        "meta_bstar": 0,
        "meta_mean_motion_dot": -9.6e-07,
        "meta_mean_motion_ddot": 0,
        "tle_line1": "1 31862U 07032A   25345.61398183 -.00000096  00000+0  00000+0 0  9994",
        "tle_line2": "2 31862   0.0124 167.5307 0000319  60.5816 330.7109  1.00271436 43719"
      },
      "geometry": {
        "type": "Point",
        "coordinates": [
          34.84579719419201,
          -0.004861046829601444
        ]
      }
    },
    {
      "type": "Feature",
      "properties": {
        "norad_id": 32253,
        "name": "INTELSAT 11 (IS-11)",
        "group": "intelsat",
        "lat": -3.0218136879772652,
        "lon": 1.5913452307215366,
        "alt_km": 36148.74231925907,
        "timestamp": "2025-12-13T03:42:10.947695+00:00",
        "meta_object_name": "INTELSAT 11 (IS-11)",
        "meta_object_id": "2007-044B",
        "meta_epoch": "2025-12-12T06:00:16.613856",
        "meta_mean_motion": 0.99048636,
        "meta_eccentricity": 0.00089075,
        "meta_inclination": 3.0792,
        "meta_ra_of_asc_node": 80.9819,
        "meta_arg_of_pericenter": 165.6758,
        "meta_mean_anomaly": 152.442,
        "meta_ephemeris_type": 0,
        "meta_classification_type": "U",
        "meta_norad_cat_id": 32253,
        "meta_element_set_no": 999,
        "meta_rev_at_epoch": 6659,
        "meta_bstar": 0,
        "meta_mean_motion_dot": 8e-07,
        "meta_mean_motion_ddot": 0,
        "tle_line1": "1 32253U 07044B   25346.25019229  .00000080  00000+0  00000+0 0  9996",
        "tle_line2": "2 32253   3.0792  80.9819 0008907 165.6758 152.4420  0.99048636 66594"
      },
      "geometry": {
        "type": "Point",
        "coordinates": [
          1.5913452307215366,
          -3.0218136879772652
        ]
      }
    },
    {
      "type": "Feature",
      "properties": {
        "norad_id": 32388,
        "name": "HORIZONS-2",
        "group": "intelsat",
        "lat": -0.6749626002249656,
        "lon": 63.86788120065902,
        "alt_km": 35804.987518734975,
        "timestamp": "2025-12-13T03:42:10.947707+00:00",
        "meta_object_name": "HORIZONS-2",
        "meta_object_id": "2007-063B",
        "meta_epoch": "2025-12-12T06:16:52.524192",
        "meta_mean_motion": 1.00269956,
        "meta_eccentricity": 0.00049084,
        "meta_inclination": 2.1205,
        "meta_ra_of_asc_node": 82.9663,
        "meta_arg_of_pericenter": 189.6669,
        "meta_mean_anomaly": 189.0005,
        "meta_ephemeris_type": 0,
        "meta_classification_type": "U",
        "meta_norad_cat_id": 32388,
        "meta_element_set_no": 999,
        "meta_rev_at_epoch": 6594,
        "meta_bstar": 0,
        "meta_mean_motion_dot": -2.43e-06,
        "meta_mean_motion_ddot": 0,
        "tle_line1": "1 32388U 07063B   25346.26171903 -.00000243  00000+0  00000+0 0  9997",
        "tle_line2": "2 32388   2.1205  82.9663 0004908 189.6669 189.0005  1.00269956 65941"
      },
      "geometry": {
        "type": "Point",
        "coordinates": [
          63.86788120065902,
          -0.6749626002249656
        ]
      }
    },
    {
      "type": "Feature",
      "properties": {
        "norad_id": 32729,
        "name": "DIRECTV 11",
        "group": "intelsat",
        "lat": 0.013193152528885924,
        "lon": 38.43076062306167,
        "alt_km": 35788.224514223,
        "timestamp": "2025-12-13T03:42:10.947719+00:00",
        "meta_object_name": "DIRECTV 11",
        "meta_object_id": "2008-013A",
        "meta_epoch": "2025-12-11T21:35:58.588224",
        "meta_mean_motion": 1.00271084,
        "meta_eccentricity": 5.41e-05,
        "meta_inclination": 0.0355,
        "meta_ra_of_asc_node": 183.5345,
        "meta_arg_of_pericenter": 2.2866,
        "meta_mean_anomaly": 119.8352,
        "meta_ephemeris_type": 0,
        "meta_classification_type": "U",
        "meta_norad_cat_id": 32729,
        "meta_element_set_no": 999,
        "meta_rev_at_epoch": 4371,
        "meta_bstar": 0,
        "meta_mean_motion_dot": -1.17e-06,
        "meta_mean_motion_ddot": 0,
        "tle_line1": "1 32729U 08013A   25345.89998366 -.00000117  00000+0  00000+0 0  9990",
        "tle_line2": "2 32729   0.0355 183.5345 0000541   2.2866 119.8352  1.00271084 43718"
      },
      "geometry": {
        "type": "Point",
        "coordinates": [
          38.43076062306167,
          0.013193152528885924
        ]
      }
    },
    {
      "type": "Feature",
      "properties": {
        "norad_id": 32951,
        "name": "GALAXY 18 (G-18)",
        "group": "intelsat",
        "lat": 0.02494664444300834,
        "lon": 14.640375759123035,
        "alt_km": 35790.2102769127,
        "timestamp": "2025-12-13T03:42:10.947736+00:00",
        "meta_object_name": "GALAXY 18 (G-18)",
        "meta_object_id": "2008-024A",
        "meta_epoch": "2025-12-12T06:02:46.375296",
        "meta_mean_motion": 1.00270121,
        "meta_eccentricity": 0.0002921,
        "meta_inclination": 0.0202,
        "meta_ra_of_asc_node": 335.0381,
        "meta_arg_of_pericenter": 292.1416,
        "meta_mean_anomaly": 141.6988,
        "meta_ephemeris_type": 0,
        "meta_classification_type": "U",
        "meta_norad_cat_id": 32951,
        "meta_element_set_no": 999,
        "meta_rev_at_epoch": 4397,
        "meta_bstar": 0,
        "meta_mean_motion_dot": 0,
        "meta_mean_motion_ddot": 0,
        "tle_line1": "1 32951U 08024A   25346.25192564  .00000000  00000+0  00000+0 0  9996",
        "tle_line2": "2 32951   0.0202 335.0381 0002921 292.1416 141.6988  1.00270121 43972"
      },
      "geometry": {
        "type": "Point",
        "coordinates": [
          14.640375759123035,
          0.02494664444300834
        ]
      }
    },
    {
      "type": "Feature",
      "properties": {
        "norad_id": 33153,
        "name": "INTELSAT 25 (IS-25)",
        "group": "intelsat",
        "lat": 0.9031194481697449,
        "lon": 106.09937113443996,
        "alt_km": 35805.41473872229,
        "timestamp": "2025-12-13T03:42:10.947748+00:00",
        "meta_object_name": "INTELSAT 25 (IS-25)",
        "meta_object_id": "2008-034A",
        "meta_epoch": "2025-12-12T06:28:58.865664",
        "meta_mean_motion": 1.00271837,
        "meta_eccentricity": 0.00050272,
        "meta_inclination": 2.2268,
        "meta_ra_of_asc_node": 82.6549,
        "meta_arg_of_pericenter": 179.1825,
        "meta_mean_anomaly": 245.135,
        "meta_ephemeris_type": 0,
        "meta_classification_type": "U",
        "meta_norad_cat_id": 33153,
        "meta_element_set_no": 999,
        "meta_rev_at_epoch": 6382,
        "meta_bstar": 0,
        "meta_mean_motion_dot": -2.14e-06,
        "meta_mean_motion_ddot": 0,
        "tle_line1": "1 33153U 08034A   25346.27012576 -.00000214  00000+0  00000+0 0  9996",
        "tle_line2": "2 33153   2.2268  82.6549 0005027 179.1825 245.1350  1.00271837 63826"
      },
      "geometry": {
        "type": "Point",
        "coordinates": [
          106.09937113443996,
          0.9031194481697449
        ]
      }
    }
  ]
}